{"type": "FeatureCollection", "features": [ {"type": "Feature", "properties": {"norad_id": 35744, "name": "IRIDIUM 33 DEB", "group": "iridium-33-debris", "lat": -9.43375429391739, "lon": -40.581528810079526, "alt_km": 675.9597143017363, "timestamp": "2025-12-24T16:52:41.921783+00:00", "meta": {"OBJECT_NAME": "IRIDIUM 33 DEB", "OBJECT_ID": "1997-051RX", "EPOCH": "2025-12-23T03:22:28.782624", "MEAN_MOTION": 14.71122887, "ECCENTRICITY": 0.00216776, "INCLINATION": 86.3298, "RA_OF_ASC_NODE": 320.7354, "ARG_OF_PERICENTER": 155.7913, "MEAN_ANOMALY": 204.4327, "EPHEMERIS_TYPE": 0, "CLASSIFICATION_TYPE": "U", "NORAD_CAT_ID": 35744, "ELEMENT_SET_NO": 999, "REV_AT_EPOCH": 87484, "BSTAR": 0.0012113531, "MEAN_MOTION_DOT": 7.502e-05, "MEAN_MOTION_DDOT": 0}, "tle": {"line1": "1 35744U 97051RX  25357.14061091  .00007502  00000+0  12114-2 0  9993", "line2": "2 35744  86.3298 320.7354 0021677 155.7913 204.4327 14.71122887874843"}}, "geometry": {"type": "Point", "coordinates": [-40.581528810079526, -9.43375429391739]}}, {"type": "Feature", "properties": {"norad_id": 35797, "name": "IRIDIUM 33 DEB", "group": "iridium-33-debris", "lat": -48.03958262390384, "lon": 148.5614950716212, "alt_km": 631.4840008887486, "timestamp": "2025-12-24T16:52:41.921794+00:00", "meta": {"OBJECT_NAME": "IRIDIUM 33 DEB", "OBJECT_ID": "1997-051SF", "EPOCH": "2025-12-24T04:31:08.009760", "MEAN_MOTION": 14.83053483, "ECCENTRICITY": 0.00148415, "INCLINATION": 86.3359, "RA_OF_ASC_NODE": 324.7113, "ARG_OF_PERICENTER": 111.7452, "MEAN_ANOMALY": 248.5352, "EPHEMERIS_TYPE": 0, "CLASSIFICATION_TYPE": "U", "NORAD_CAT_ID": 35797, "ELEMENT_SET_NO": 999, "REV_AT_EPOCH": 87510, "BSTAR": 0.0020206958, "MEAN_MOTION_DOT": 0.00016516, "MEAN_MOTION_DDOT": 0}, "tle": {"line1": "1 35797U 97051SF  25358.18828715  .00016516  00000+0  20207-2 0  9997", "line2": "2 35797  86.3359 324.7113 0014841 111.7452 248.5352 14.83053483875106"}}, "geometry": {"type": "Point", "coordinates": [148.5614950716212, -48.03958262390384]}}, {"type": "Feature", "properties": {"norad_id": 35806, "name": "IRIDIUM 33 DEB", "group": "iridium-33-debris", "lat": 23.056852815773826, "lon": -166.19980349053228, "alt_km": 706.1575530646633, "timestamp": "2025-12-24T16:52:41.921804+00:00", "meta": {"OBJECT_NAME": "IRIDIUM 33 DEB", "OBJECT_ID": "1997-051SQ", "EPOCH": "2025-12-23T18:44:28.886496", "MEAN_MOTION": 14.57443021, "ECCENTRICITY": 0.00152726, "INCLINATION": 86.3434, "RA_OF_ASC_NODE": 15.7661, "ARG_OF_PERICENTER": 41.8859, "MEAN_ANOMALY": 318.3515, "EPHEMERIS_TYPE": 0, "CLASSIFICATION_TYPE": "U", "NORAD_CAT_ID": 35806, "ELEMENT_SET_NO": 999, "REV_AT_EPOCH": 86485, "BSTAR": 0.0011018111, "MEAN_MOTION_DOT": 5.028e-05, "MEAN_MOTION_DDOT": 0}, "tle": {"line1": "1 35806U 97051SQ  25357.78088989  .00005028  00000+0  11018-2 0  9990", "line2": "2 35806  86.3434  15.7661 0015272  41.8859 318.3515 14.57443021864858"}}, "geometry": {"type": "Point", "coordinates": [-166.19980349053228, 23.056852815773826]}}, {"type": "Feature", "properties": {"norad_id": 35809, "name": "IRIDIUM 33 DEB", "group": "iridium-33-debris", "lat": -53.27799664640002, "lon": 154.83782046247435, "alt_km": 643.6207422017378, "timestamp": "2025-12-24T16:52:41.921815+00:00", "meta": {"OBJECT_NAME": "IRIDIUM 33 DEB", "OBJECT_ID": "1997-051ST", "EPOCH": "2025-12-21T16:13:39.380736", "MEAN_MOTION": 14.75870585, "ECCENTRICITY": 0.00102664, "INCLINATION": 86.3279, "RA_OF_ASC_NODE": 331.2775, "ARG_OF_PERICENTER": 205.8578, "MEAN_ANOMALY": 154.2129, "EPHEMERIS_TYPE": 0, "CLASSIFICATION_TYPE": "U", "NORAD_CAT_ID": 35809, "ELEMENT_SET_NO": 999, "REV_AT_EPOCH": 86939, "BSTAR": 0.0013721853, "MEAN_MOTION_DOT": 9.452e-05, "MEAN_MOTION_DDOT": 0}, "tle": {"line1": "1 35809U 97051ST  25355.67615024  .00009452  00000+0  13722-2 0  9994", "line2": "2 35809  86.3279 331.2775 0010266 205.8578 154.2129 14.75870585869399"}}, "geometry": {"type": "Point", "coordinates": [154.83782046247435, -53.27799664640002]}}, {"type": "Feature", "properties": {"norad_id": 35846, "name": "IRIDIUM 33 DEB", "group": "iridium-33-debris", "lat": 50.379298703464535, "lon": 58.128092765914715, "alt_km": 741.5320572190512, "timestamp": "2025-12-24T16:52:41.921829+00:00", "meta": {"OBJECT_NAME": "IRIDIUM 33 DEB", "OBJECT_ID": "1997-051SW", "EPOCH": "2025-12-24T03:19:56.863776", "MEAN_MOTION": 14.43196634, "ECCENTRICITY": 0.00197803, "INCLINATION": 86.3734, "RA_OF_ASC_NODE": 53.9754, "ARG_OF_PERICENTER": 134.8716, "MEAN_ANOMALY": 225.4095, "EPHEMERIS_TYPE": 0, "CLASSIFICATION_TYPE": "U", "NORAD_CAT_ID": 35846, "ELEMENT_SET_NO": 999, "REV_AT_EPOCH": 71493, "BSTAR": 0.00051615927, "MEAN_MOTION_DOT": 1.758e-05, "MEAN_MOTION_DDOT": 0}, "tle": {"line1": "1 35846U 97051SW  25358.13885259  .00001758  00000+0  51616-3 0  9994", "line2": "2 35846  86.3734  53.9754 0019780 134.8716 225.4095 14.43196634714939"}}, "geometry": {"type": "Point", "coordinates": [58.128092765914715, 50.379298703464535]}}, {"type": "Feature", "properties": {"norad_id": 35848, "name": "IRIDIUM 33 DEB", "group": "iridium-33-debris", "lat": -47.83713599622491, "lon": 6.744354187587614, "alt_km": 645.985934289688, "timestamp": "2025-12-24T16:52:41.921839+00:00", "meta": {"OBJECT_NAME": "IRIDIUM 33 DEB", "OBJECT_ID": "1997-051SY", "EPOCH": "2025-12-23T08:36:58.937472", "MEAN_MOTION": 14.78845827, "ECCENTRICITY": 0.00091619, "INCLINATION": 86.3897, "RA_OF_ASC_NODE": 11.347, "ARG_OF_PERICENTER": 152.9599, "MEAN_ANOMALY": 207.2101, "EPHEMERIS_TYPE": 0, "CLASSIFICATION_TYPE": "U", "NORAD_CAT_ID": 35848, "ELEMENT_SET_NO": 999, "REV_AT_EPOCH": 66847, "BSTAR": 0.0014935306, "MEAN_MOTION_DOT": 0.00011029, "MEAN_MOTION_DDOT": 0}, "tle": {"line1": "1 35848U 97051SY  25357.35901548  .00011029  00000+0  14935-2 0  9993", "line2": "2 35848  86.3897  11.3470 0009161 152.9599 207.2101 14.78845827668472"}}, "geometry": {"type": "Point", "coordinates": [6.744354187587614, -47.83713599622491]}}, {"type": "Feature", "properties": {"norad_id": 35850, "name": "IRIDIUM 33 DEB", "group": "iridium-33-debris", "lat": -74.02293855358232, "lon": -34.08012042533718, "alt_km": 645.6611872532276, "timestamp": "2025-12-24T16:52:41.921849+00:00", "meta": {"OBJECT_NAME": "IRIDIUM 33 DEB", "OBJECT_ID": "1997-051TA", "EPOCH": "2025-12-23T16:51:33.482304", "MEAN_MOTION": 14.79050016, "ECCENTRICITY": 0.00107739, "INCLINATION": 86.3501, "RA_OF_ASC_NODE": 339.2572, "ARG_OF_PERICENTER": 146.4147, "MEAN_ANOMALY": 213.7758, "EPHEMERIS_TYPE": 0, "CLASSIFICATION_TYPE": "U", "NORAD_CAT_ID": 35850, "ELEMENT_SET_NO": 999, "REV_AT_EPOCH": 71519, "BSTAR": 0.001670653, "MEAN_MOTION_DOT": 0.00012399, "MEAN_MOTION_DDOT": 0}, "tle": {"line1": "1 35850U 97051TA  25357.70247086  .00012399  00000+0  16707-2 0  9995", "line2": "2 35850  86.3501 339.2572 0010773 146.4147 213.7758 14.79050016715191"}}, "geometry": {"type": "Point", "coordinates": [-34.08012042533718, -74.02293855358232]}}, {"type": "Feature", "properties": {"norad_id": 35915, "name": "IRIDIUM 33 DEB", "group": "iridium-33-debris", "lat": -51.53723574336906, "lon": -27.126174970079514, "alt_km": 641.4372518889832, "timestamp": "2025-12-24T16:52:41.921859+00:00", "meta": {"OBJECT_NAME": "IRIDIUM 33 DEB", "OBJECT_ID": "1997-051TY", "EPOCH": "2025-12-22T16:27:49.238784", "MEAN_MOTION": 14.80964903, "ECCENTRICITY": 0.00122455, "INCLINATION": 86.3447, "RA_OF_ASC_NODE": 338.4114, "ARG_OF_PERICENTER": 150.5648, "MEAN_ANOMALY": 209.6266, "EPHEMERIS_TYPE": 0, "CLASSIFICATION_TYPE": "U", "NORAD_CAT_ID": 35915, "ELEMENT_SET_NO": 999, "REV_AT_EPOCH": 8233, "BSTAR": 0.0017914035, "MEAN_MOTION_DOT": 0.00013917, "MEAN_MOTION_DDOT": 0}, "tle": {"line1": "1 35915U 97051TY  25356.68598656  .00013917  00000+0  17914-2 0  9993", "line2": "2 35915  86.3447 338.4114 0012245 150.5648 209.6266 14.80964903 82335"}}, "geometry": {"type": "Point", "coordinates": [-27.126174970079514, -51.53723574336906]}}, {"type": "Feature", "properties": {"norad_id": 35918, "name": "IRIDIUM 33 DEB", "group": "iridium-33-debris", "lat": -86.23820979614857, "lon": -2.5451334996568535, "alt_km": 744.1440150446724, "timestamp": "2025-12-24T16:52:41.921870+00:00", "meta": {"OBJECT_NAME": "IRIDIUM 33 DEB", "OBJECT_ID": "1997-051UB", "EPOCH": "2025-12-23T11:35:29.857344", "MEAN_MOTION": 14.51328977, "ECCENTRICITY": 0.0028413, "INCLINATION": 86.4002, "RA_OF_ASC_NODE": 71.2045, "ARG_OF_PERICENTER": 135.285, "MEAN_ANOMALY": 243.9712, "EPHEMERIS_TYPE": 0, "CLASSIFICATION_TYPE": "U", "NORAD_CAT_ID": 35918, "ELEMENT_SET_NO": 999, "REV_AT_EPOCH": 85363, "BSTAR": 0.0010733653, "MEAN_MOTION_DOT": 4.316e-05, "MEAN_MOTION_DDOT": 0}, "tle": {"line1": "1 35918U 97051UB  25357.48298446  .00004316  00000+0  10734-2 0  9995", "line2": "2 35918  86.4002  71.2045 0028413 135.2850 243.9712 14.51328977853639"}}, "geometry": {"type": "Point", "coordinates": [-2.5451334996568535, -86.23820979614857]}}, {"type": "Feature", "properties": {"norad_id": 35929, "name": "IRIDIUM 33 DEB", "group": "iridium-33-debris", "lat": 76.53466550356015, "lon": -37.51774186688276, "alt_km": 547.7495241288316, "timestamp": "2025-12-24T16:52:41.921880+00:00", "meta": {"OBJECT_NAME": "IRIDIUM 33 DEB", "OBJECT_ID": "1997-051UN", "EPOCH": "2025-12-23T14:58:27.135552", "MEAN_MOTION": 15.03115552, "ECCENTRICITY": 0.00156026, "INCLINATION": 86.3353, "RA_OF_ASC_NODE": 307.468, "ARG_OF_PERICENTER": 2.5785, "MEAN_ANOMALY": 357.5526, "EPHEMERIS_TYPE": 0, "CLASSIFICATION_TYPE": "U", "NORAD_CAT_ID": 35929, "ELEMENT_SET_NO": 999, "REV_AT_EPOCH": 87943, "BSTAR": 0.0026490117, "MEAN_MOTION_DOT": 0.00035991, "MEAN_MOTION_DDOT": 0}, "tle": {"line1": "1 35929U 97051UN  25357.62392518  .00035991  00000+0  26490-2 0  9997", "line2": "2 35929  86.3353 307.4680 0015602   2.5785 357.5526 15.03115552879439"}}, "geometry": {"type": "Point", "coordinates": [-37.51774186688276, 76.53466550356015]}}]}